*******************************************************************************
 Revised: April 12, 2021                Venus                           299 / 2
 
 PHYSICAL DATA (updated 2020-Oct-19):
  Vol. Mean Radius (km) =  6051.84+-0.01 Density (g/cm^3)      =  5.204
  Mass x10^23 (kg)      =    48.685      Volume (x10^10 km^3)  = 92.843
  Sidereal rot. period  =   243.018484 d Sid. Rot. Rate (rad/s)= -0.00000029924
  Mean solar day        =   116.7490 d   Equ. gravity  m/s^2   =  8.870
  Mom. of Inertia       =     0.33       Core radius (km)      = ~3200
  Geometric Albedo      =     0.65       Potential Love # k2   = ~0.25
  GM (km^3/s^2)         = 324858.592     Equatorial Radius, Re = 6051.893 km
  GM 1-sigma (km^3/s^2) =    +-0.006     Mass ratio (Sun/Venus)= 408523.72
  Atmos. pressure (bar) =  90            Max. angular diam.    =   60.2"
  Mean Temperature (K)  = 735            Visual mag. V(1,0)    =   -4.40
  Obliquity to orbit    = 177.3 deg      Hill's sphere rad.,Rp =  167.1
  Sidereal orb. per., y =   0.61519726   Orbit speed, km/s     =   35.021
  Sidereal orb. per., d = 224.70079922   Escape speed, km/s    =   10.361
                                 Perihelion  Aphelion    Mean
  Solar Constant (W/m^2)         2759         2614       2650
  Maximum Planetary IR (W/m^2)    153         153         153
  Minimum Planetary IR (W/m^2)    153         153         153
*******************************************************************************


*******************************************************************************
Ephemeris / WWW_USER Wed Oct  5 11:27:28 2022 Pasadena, USA      / Horizons
*******************************************************************************
Target body name: Venus (299)                     {source: DE441}
Center body name: Sun (10)                        {source: DE441}
Center-site name: BODY CENTER
*******************************************************************************
Start time      : A.D. 2023-May-13 00:00:00.0000 TDB
Stop  time      : A.D. 2024-May-13 00:00:00.0000 TDB
Step-size       : 1440 minutes
*******************************************************************************
Center geodetic : 0.00000000,0.00000000,0.0000000 {E-lon(deg),Lat(deg),Alt(km)}
Center cylindric: 0.00000000,0.00000000,0.0000000 {E-lon(deg),Dxy(km),Dz(km)}
Center radii    : 696000.0 x 696000.0 x 696000.0 k{Equator, meridian, pole}    
Output units    : KM-S
Output type     : GEOMETRIC cartesian states
Output format   : 2 (position and velocity)
Reference frame : Ecliptic of J2000.0
*******************************************************************************
JDTDB
   X     Y     Z
   VX    VY    VZ
*******************************************************************************
$$SOE
2460077.500000000 = A.D. 2023-May-13 00:00:00.0000 TDB 
 X =-1.065936145028500E+08 Y = 1.369482381224506E+07 Z = 6.338749943206276E+06
 VX=-4.652647834146495E+00 VY=-3.489036377469170E+01 VZ=-2.105547013494444E-01
2460078.500000000 = A.D. 2023-May-14 00:00:00.0000 TDB 
 X =-1.069532407968185E+08 Y = 1.067525930025327E+07 Z = 6.318044428890517E+06
 VX=-3.671546567051831E+00 VY=-3.500233172990295E+01 VZ=-2.687042063879215E-01
2460079.500000000 = A.D. 2023-May-15 00:00:00.0000 TDB 
 X =-1.072279847888106E+08 Y = 7.647222048086956E+06 Z = 6.292324645735568E+06
 VX=-2.687911967353976E+00 VY=-3.508648244456738E+01 VZ=-3.266179775150686E-01
2460080.500000000 = A.D. 2023-May-16 00:00:00.0000 TDB 
 X =-1.074176618837609E+08 Y = 4.613117613633414E+06 Z = 6.261612968984442E+06
 VX=-1.702537755173406E+00 VY=-3.514277004850499E+01 VZ=-3.842495849696306E-01
2460081.500000000 = A.D. 2023-May-17 00:00:00.0000 TDB 
 X =-1.075221560770067E+08 Y = 1.575354518221318E+06 Z = 6.225935772435066E+06
 VX=-7.162178350920989E-01 VY=-3.517117180681198E+01 VZ=-4.415529059754295E-01
2460082.500000000 = A.D. 2023-May-18 00:00:00.0000 TDB 
 X =-1.075414199401981E+08 Y =-1.463657750158994E+06 Z = 6.185323400213092E+06
 VX= 2.702543981484986E-01 VY=-3.517168806739996E+01 VZ=-4.984821640842672E-01
2460083.500000000 = A.D. 2023-May-19 00:00:00.0000 TDB 
 X =-1.074754745474179E+08 Y =-4.501510728153167E+06 Z = 6.139810135169842E+06
 VX= 1.256086749375507E+00 VY=-3.514434218652244E+01 VZ=-5.549919679527555E-01
2460084.500000000 = A.D. 2023-May-20 00:00:00.0000 TDB 
 X =-1.073244093419323E+08 Y =-7.535798960958083E+06 Z = 6.089434163955864E+06
 VX= 2.240488907344889E+00 VY=-3.508918043248823E+01 VZ=-6.110373495098340E-01
2460085.500000000 = A.D. 2023-May-21 00:00:00.0000 TDB 
 X =-1.070883819440734E+08 Y =-1.056412197699576E+07 Z = 6.034237538824522E+06
 VX= 3.222673122967030E+00 VY=-3.500627186805686E+01 VZ=-6.665738014776892E-01
2460086.500000000 = A.D. 2023-May-22 00:00:00.0000 TDB 
 X =-1.067676179008128E+08 Y =-1.358408625151478E+07 Z = 5.974266136222974E+06
 VX= 4.201854880716455E+00 VY=-3.489570821180165E+01 VZ=-7.215573142106582E-01
2460087.500000000 = A.D. 2023-May-23 00:00:00.0000 TDB 
 X =-1.063624103776446E+08 Y =-1.659330715731961E+07 Z = 5.909569612231001E+06
 VX= 5.177253562529859E+00 VY=-3.475760367885242E+01 VZ=-7.759444118175836E-01
2460088.500000000 = A.D. 2023-May-24 00:00:00.0000 TDB 
 X =-1.058731197934564E+08 Y =-1.958941090086475E+07 Z = 5.840201354910981E+06
 VX= 6.148093103523204E+00 VY=-3.459209480144766E+01 VZ=-8.296921875349330E-01
2460089.500000000 = A.D. 2023-May-25 00:00:00.0000 TDB 
 X =-1.053001733991232E+08 Y =-2.257003644198836E+07 Z = 5.766218433635119E+06
 VX= 7.113602638885101E+00 VY=-3.439934022974499E+01 VZ=-8.827583383197943E-01
2460090.500000000 = A.D. 2023-May-26 00:00:00.0000 TDB 
 X =-1.046440648006127E+08 Y =-2.553283739559993E+07 Z = 5.687681545458618E+06
 VX= 8.073017141330313E+00 VY=-3.417952051335645E+01 VZ=-9.351011986335696E-01
2460091.500000000 = A.D. 2023-May-27 00:00:00.0000 TDB 
 X =-1.039053534274443E+08 Y =-2.847548391367717E+07 Z = 5.604654958609854E+06
 VX= 9.025578048523666E+00 VY=-3.393283786409418E+01 VZ=-9.866797733890404E-01
2460092.500000000 = A.D. 2023-May-28 00:00:00.0000 TDB 
 X =-1.030846639473923E+08 Y =-3.139566454597064E+07 Z = 5.517206453171031E+06
 VX= 9.970533879911311E+00 VY=-3.365951590043000E+01 VZ=-1.037453770035235E+00
2460093.500000000 = A.D. 2023-May-29 00:00:00.0000 TDB 
 X =-1.021826856283710E+08 Y =-3.429108807785831E+07 Z = 5.425407259024783E+06
 VX= 1.090714084242273E+01 VY=-3.335979937419104E+01 VZ=-1.087383629756300E+00
2460094.500000000 = A.D. 2023-May-30 00:00:00.0000 TDB 
 X =-1.012001716484876E+08 Y =-3.715948534383870E+07 Z = 5.329331991144290E+06
 VX= 1.183466342453362E+01 VY=-3.303395388003175E+01 VZ=-1.136430557762429E+00
2460095.500000000 = A.D. 2023-May-31 00:00:00.0000 TDB 
 X =-1.001379383552876E+08 Y =-3.999861101519838E+07 Z = 5.229058582306216E+06
 VX= 1.275237497820610E+01 VY=-3.268226554824113E+01 VZ=-1.184556552652602E+00
2460096.500000000 = A.D. 2023-Jun-01 00:00:00.0000 TDB 
 X =-9.899686447526123E+07 Y =-4.280624536043876E+07 Z = 5.124668213307427E+06
 VX= 1.365955828824973E+01 VY=-3.230504072146246E+01 VZ=-1.231724434830717E+00
2460097.500000000 = A.D. 2023-Jun-02 00:00:00.0000 TDB 
 X =-9.777789027471422E+07 Y =-4.558019597709498E+07 Z = 5.016245240768095E+06
 VX= 1.455550612871335E+01 VY=-3.190260561581306E+01 VZ=-1.277897873959459E+00
2460098.500000000 = A.D. 2023-Jun-03 00:00:00.0000 TDB 
 X =-9.648201667314419E+07 Y =-4.831829949362484E+07 Z = 4.903877122604940E+06
 VX= 1.543952180584085E+01 VY=-3.147530596712894E+01 VZ=-1.323041415434682E+00
2460099.500000000 = A.D. 2023-Jun-04 00:00:00.0000 TDB 
 X =-9.511030431029481E+07 Y =-5.101842324011300E+07 Z = 4.787654341259670E+06
 VX= 1.631091968731703E+01 VY=-3.102350666283776E+01 VZ=-1.367120505871670E+00
2460100.500000000 = A.D. 2023-Jun-05 00:00:00.0000 TDB 
 X =-9.366387256809261E+07 Y =-5.367846688656470E+07 Z = 4.667670324768851E+06
 VX= 1.716902571737148E+01 VY=-3.054759136002457E+01 VZ=-1.410101517585943E+00
2460101.500000000 = A.D. 2023-Jun-06 00:00:00.0000 TDB 
 X =-9.214389854869725E+07 Y =-5.629636404763113E+07 Z = 4.544021365762079E+06
 VX= 1.801317791750395E+01 VY=-3.004796209039086E+01 VZ=-1.451951772064655E+00
2460102.500000000 = A.D. 2023-Jun-07 00:00:00.0000 TDB 
 X =-9.055161600992219E+07 Y =-5.887008385265576E+07 Z = 4.416806538476340E+06
 VX= 1.884272687251438E+01 VY=-2.952503885264469E+01 VZ=-1.492639562417633E+00
2460103.500000000 = A.D. 2023-Jun-08 00:00:00.0000 TDB 
 X =-8.888831425930619E+07 Y =-6.139763247998258E+07 Z = 4.286127613874830E+06
 VX= 1.965703620158779E+01 VY=-2.897925919293913E+01 VZ=-1.532134174801989E+00
2460104.500000000 = A.D. 2023-Jun-09 00:00:00.0000 TDB 
 X =-8.715533700813699E+07 Y =-6.387705465451981E+07 Z = 4.152088972959239E+06
 VX= 2.045548301421025E+01 VY=-2.841107777397126E+01 VZ=-1.570405908815786E+00
2460105.500000000 = A.D. 2023-Jun-10 00:00:00.0000 TDB 
 X =-8.535408118674619E+07 Y =-6.630643510760584E+07 Z = 4.014797518364660E+06
 VX= 2.123745835071738E+01 VY=-2.782096593334819E+01 VZ=-1.607426096857443E+00
2460106.500000000 = A.D. 2023-Jun-11 00:00:00.0000 TDB 
 X =-8.348599572241117E+07 Y =-6.868389999827595E+07 Z = 3.874362584326621E+06
 VX= 2.200236760730178E+01 VY=-2.720941123182122E+01 VZ=-1.643167122448933E+00
2460107.500000000 = A.D. 2023-Jun-12 00:00:00.0000 TDB 
 X =-8.155258028121302E+07 Y =-7.100761829508035E+07 Z = 3.730895845109809E+06
 VX= 2.274963094533030E+01 VY=-2.657691699198464E+01 VZ=-1.677602437521964E+00
2460108.500000000 = A.D. 2023-Jun-13 00:00:00.0000 TDB 
 X =-7.955538397521192E+07 Y =-7.327580311765495E+07 Z = 3.584511221987937E+06
 VX= 2.347868368484587E+01 VY=-2.592400182802968E+01 VZ=-1.710706578667695E+00
2460109.500000000 = A.D. 2023-Jun-14 00:00:00.0000 TDB 
 X =-7.749600403631105E+07 Y =-7.548671303729779E+07 Z = 3.435324788864538E+06
 VX= 2.418897668215211E+01 VY=-2.525119916714011E+01 VZ=-1.742455182351575E+00
